[
  {
    "OBJECT_NAME": "STARLINK-1992",
    "OBJECT_ID": "21012N",
    "EPOCH": "2025-11-11T05:54:33.090912",
    "MEAN_MOTION": 15.06398696,
    "ECCENTRICITY": 0.0001549,
    "INCLINATION": 53.0524,
    "RA_OF_ASC_NODE": 148.3327,
    "ARG_OF_PERICENTER": 86.3168,
    "MEAN_ANOMALY": 273.7998,
    "EPHEMERIS_TYPE": 0,
    "CLASSIFICATION_TYPE": "U",
    "NORAD_CAT_ID": 47632,
    "ELEMENT_SET_NO": 999,
    "REV_AT_EPOCH": 26344,
    "BSTAR": 5.462900000000001e-05,
    "MEAN_MOTION_DOT": 5.32e-06,
    "MEAN_MOTION_DDOT": 0.0,
    "TLE_LINE1": "1 47632U 21012N   25315.24621633  .00000532  00000+0  54629-4 0  9990",
    "TLE_LINE2": "2 47632  53.0524 148.3327 0001549  86.3168 273.7998 15.06398696263449",
    "COMMENT": "Grouped by shell and plane from TLE"
  },
  {
    "OBJECT_NAME": "STARLINK-2015",
    "OBJECT_ID": "21012U",
    "EPOCH": "2025-11-11T06:17:08.776032",
    "MEAN_MOTION": 15.06397323,
    "ECCENTRICITY": 0.000148,
    "INCLINATION": 53.053,
    "RA_OF_ASC_NODE": 148.261,
    "ARG_OF_PERICENTER": 97.2729,
    "MEAN_ANOMALY": 262.8428,
    "EPHEMERIS_TYPE": 0,
    "CLASSIFICATION_TYPE": "U",
    "NORAD_CAT_ID": 47638,
    "ELEMENT_SET_NO": 999,
    "REV_AT_EPOCH": 26344,
    "BSTAR": 0.00017094,
    "MEAN_MOTION_DOT": 2.265e-05,
    "MEAN_MOTION_DDOT": 0.0,
    "TLE_LINE1": "1 47638U 21012U   25315.26190713  .00002265  00000+0  17094-3 0  9997",
    "TLE_LINE2": "2 47638  53.0530 148.2610 0001480  97.2729 262.8428 15.06397323263447",
    "COMMENT": "Grouped by shell and plane from TLE"
  },
  {
    "OBJECT_NAME": "STARLINK-1647",
    "OBJECT_ID": "21024B",
    "EPOCH": "2025-11-10T22:45:58.720320",
    "MEAN_MOTION": 15.06408577,
    "ECCENTRICITY": 0.0001636,
    "INCLINATION": 53.0521,
    "RA_OF_ASC_NODE": 149.6704,
    "ARG_OF_PERICENTER": 88.8586,
    "MEAN_ANOMALY": 271.2591,
    "EPHEMERIS_TYPE": 0,
    "CLASSIFICATION_TYPE": "U",
    "NORAD_CAT_ID": 47978,
    "ELEMENT_SET_NO": 999,
    "REV_AT_EPOCH": 25666,
    "BSTAR": 0.00026774,
    "MEAN_MOTION_DOT": 3.71e-05,
    "MEAN_MOTION_DDOT": 0.0,
    "TLE_LINE1": "1 47978U 21024B   25314.94859630  .00003710  00000+0  26774-3 0  9992",
    "TLE_LINE2": "2 47978  53.0521 149.6704 0001636  88.8586 271.2591 15.06408577256668",
    "COMMENT": "Grouped by shell and plane from TLE"
  },
  {
    "OBJECT_NAME": "STARLINK-2303",
    "OBJECT_ID": "21024E",
    "EPOCH": "2025-11-11T06:27:45.969984",
    "MEAN_MOTION": 15.06401032,
    "ECCENTRICITY": 0.0001631,
    "INCLINATION": 53.0525,
    "RA_OF_ASC_NODE": 148.2284,
    "ARG_OF_PERICENTER": 92.8813,
    "MEAN_ANOMALY": 267.2363,
    "EPHEMERIS_TYPE": 0,
    "CLASSIFICATION_TYPE": "U",
    "NORAD_CAT_ID": 47981,
    "ELEMENT_SET_NO": 999,
    "REV_AT_EPOCH": 25671,
    "BSTAR": 0.00026117,
    "MEAN_MOTION_DOT": 3.611e-05,
    "MEAN_MOTION_DDOT": 0.0,
    "TLE_LINE1": "1 47981U 21024E   25315.26928206  .00003611  00000+0  26117-3 0  9999",
    "TLE_LINE2": "2 47981  53.0525 148.2284 0001631  92.8813 267.2363 15.06401032256714",
    "COMMENT": "Grouped by shell and plane from TLE"
  },
  {
    "OBJECT_NAME": "STARLINK-2226",
    "OBJECT_ID": "21024AK",
    "EPOCH": "2025-11-11T06:11:51.820224",
    "MEAN_MOTION": 15.0638044,
    "ECCENTRICITY": 0.0001941,
    "INCLINATION": 53.0493,
    "RA_OF_ASC_NODE": 148.2798,
    "ARG_OF_PERICENTER": 95.796,
    "MEAN_ANOMALY": 264.3251,
    "EPHEMERIS_TYPE": 0,
    "CLASSIFICATION_TYPE": "U",
    "NORAD_CAT_ID": 48010,
    "ELEMENT_SET_NO": 999,
    "REV_AT_EPOCH": 25665,
    "BSTAR": 0.00038273,
    "MEAN_MOTION_DOT": 5.421e-05,
    "MEAN_MOTION_DDOT": 0.0,
    "TLE_LINE1": "1 48010U 21024AK  25315.25823866  .00005421  00000+0  38273-3 0  9995",
    "TLE_LINE2": "2 48010  53.0493 148.2798 0001941  95.7960 264.3251 15.06380440256657",
    "COMMENT": "Grouped by shell and plane from TLE"
  },
  {
    "OBJECT_NAME": "STARLINK-2298",
    "OBJECT_ID": "21024AX",
    "EPOCH": "2025-11-10T23:21:11.616768",
    "MEAN_MOTION": 15.06410754,
    "ECCENTRICITY": 0.0001459,
    "INCLINATION": 53.0523,
    "RA_OF_ASC_NODE": 144.8387,
    "ARG_OF_PERICENTER": 103.6269,
    "MEAN_ANOMALY": 256.4883,
    "EPHEMERIS_TYPE": 0,
    "CLASSIFICATION_TYPE": "U",
    "NORAD_CAT_ID": 48022,
    "ELEMENT_SET_NO": 999,
    "REV_AT_EPOCH": 25673,
    "BSTAR": 0.00029749999999999997,
    "MEAN_MOTION_DOT": 4.154e-05,
    "MEAN_MOTION_DDOT": 0.0,
    "TLE_LINE1": "1 48022U 21024AX  25314.97305112  .00004154  00000+0  29750-3 0  9997",
    "TLE_LINE2": "2 48022  53.0523 144.8387 0001459 103.6269 256.4883 15.06410754256739",
    "COMMENT": "Grouped by shell and plane from TLE"
  },
  {
    "OBJECT_NAME": "STARLINK-2292",
    "OBJECT_ID": "21024AY",
    "EPOCH": "2025-11-11T05:27:22.912128",
    "MEAN_MOTION": 15.06393979,
    "ECCENTRICITY": 0.0001443,
    "INCLINATION": 53.0521,
    "RA_OF_ASC_NODE": 143.4169,
    "ARG_OF_PERICENTER": 91.8497,
    "MEAN_ANOMALY": 268.2657,
    "EPHEMERIS_TYPE": 0,
    "CLASSIFICATION_TYPE": "U",
    "NORAD_CAT_ID": 48023,
    "ELEMENT_SET_NO": 999,
    "REV_AT_EPOCH": 25677,
    "BSTAR": 5.5059e-05,
    "MEAN_MOTION_DOT": 5.39e-06,
    "MEAN_MOTION_DDOT": 0.0,
    "TLE_LINE1": "1 48023U 21024AY  25315.22734852  .00000539  00000+0  55059-4 0  9999",
    "TLE_LINE2": "2 48023  53.0521 143.4169 0001443  91.8497 268.2657 15.06393979256778",
    "COMMENT": "Grouped by shell and plane from TLE"
  },
  {
    "OBJECT_NAME": "STARLINK-2299",
    "OBJECT_ID": "21024BE",
    "EPOCH": "2025-11-10T19:22:18.061536",
    "MEAN_MOTION": 15.06403189,
    "ECCENTRICITY": 0.0001639,
    "INCLINATION": 53.0522,
    "RA_OF_ASC_NODE": 145.3006,
    "ARG_OF_PERICENTER": 92.8734,
    "MEAN_ANOMALY": 267.2443,
    "EPHEMERIS_TYPE": 0,
    "CLASSIFICATION_TYPE": "U",
    "NORAD_CAT_ID": 48029,
    "ELEMENT_SET_NO": 999,
    "REV_AT_EPOCH": 25671,
    "BSTAR": 0.00028204,
    "MEAN_MOTION_DOT": 3.922e-05,
    "MEAN_MOTION_DDOT": 0.0,
    "TLE_LINE1": "1 48029U 21024BE  25314.80715349  .00003922  00000+0  28204-3 0  9998",
    "TLE_LINE2": "2 48029  53.0522 145.3006 0001639  92.8734 267.2443 15.06403189256719",
    "COMMENT": "Grouped by shell and plane from TLE"
  },
  {
    "OBJECT_NAME": "STARLINK-3528",
    "OBJECT_ID": "22016A",
    "EPOCH": "2025-11-11T05:46:34.305312",
    "MEAN_MOTION": 15.08839177,
    "ECCENTRICITY": 0.0001467,
    "INCLINATION": 53.2142,
    "RA_OF_ASC_NODE": 140.8354,
    "ARG_OF_PERICENTER": 89.7877,
    "MEAN_ANOMALY": 270.3284,
    "EPHEMERIS_TYPE": 0,
    "CLASSIFICATION_TYPE": "U",
    "NORAD_CAT_ID": 51714,
    "ELEMENT_SET_NO": 999,
    "REV_AT_EPOCH": 20554,
    "BSTAR": 2.9642000000000002e-05,
    "MEAN_MOTION_DOT": 1.84e-06,
    "MEAN_MOTION_DDOT": 0.0,
    "TLE_LINE1": "1 51714U 22016A   25315.24067483  .00000184  00000+0  29642-4 0  9998",
    "TLE_LINE2": "2 51714  53.2142 140.8354 0001467  89.7877 270.3284 15.08839177205547",
    "COMMENT": "Grouped by shell and plane from TLE"
  },
  {
    "OBJECT_NAME": "STARLINK-3533",
    "OBJECT_ID": "22016B",
    "EPOCH": "2025-11-10T23:14:26.279808",
    "MEAN_MOTION": 15.08839808,
    "ECCENTRICITY": 0.0001894,
    "INCLINATION": 53.2146,
    "RA_OF_ASC_NODE": 142.0901,
    "ARG_OF_PERICENTER": 86.5577,
    "MEAN_ANOMALY": 273.5631,
    "EPHEMERIS_TYPE": 0,
    "CLASSIFICATION_TYPE": "U",
    "NORAD_CAT_ID": 51715,
    "ELEMENT_SET_NO": 999,
    "REV_AT_EPOCH": 20663,
    "BSTAR": 5.5359e-05,
    "MEAN_MOTION_DOT": 5.93e-06,
    "MEAN_MOTION_DDOT": 0.0,
    "TLE_LINE1": "1 51715U 22016B   25314.96835972  .00000593  00000+0  55359-4 0  9991",
    "TLE_LINE2": "2 51715  53.2146 142.0901 0001894  86.5577 273.5631 15.08839808206633",
    "COMMENT": "Grouped by shell and plane from TLE"
  },
  {
    "OBJECT_NAME": "STARLINK-3543",
    "OBJECT_ID": "22016C",
    "EPOCH": "2025-11-11T05:45:11.567808",
    "MEAN_MOTION": 15.08842433,
    "ECCENTRICITY": 0.0001479,
    "INCLINATION": 53.2155,
    "RA_OF_ASC_NODE": 140.8616,
    "ARG_OF_PERICENTER": 85.9409,
    "MEAN_ANOMALY": 274.1753,
    "EPHEMERIS_TYPE": 0,
    "CLASSIFICATION_TYPE": "U",
    "NORAD_CAT_ID": 51716,
    "ELEMENT_SET_NO": 999,
    "REV_AT_EPOCH": 20554,
    "BSTAR": 0.00011617,
    "MEAN_MOTION_DOT": 1.561e-05,
    "MEAN_MOTION_DDOT": 0.0,
    "TLE_LINE1": "1 51716U 22016C   25315.23971722  .00001561  00000+0  11617-3 0  9991",
    "TLE_LINE2": "2 51716  53.2155 140.8616 0001479  85.9409 274.1753 15.08842433205548",
    "COMMENT": "Grouped by shell and plane from TLE"
  },
  {
    "OBJECT_NAME": "STARLINK-3445",
    "OBJECT_ID": "22016D",
    "EPOCH": "2025-11-11T05:51:50.785920",
    "MEAN_MOTION": 15.08876315,
    "ECCENTRICITY": 0.0001987,
    "INCLINATION": 53.2171,
    "RA_OF_ASC_NODE": 140.9288,
    "ARG_OF_PERICENTER": 79.0017,
    "MEAN_ANOMALY": 281.1199,
    "EPHEMERIS_TYPE": 0,
    "CLASSIFICATION_TYPE": "U",
    "NORAD_CAT_ID": 51717,
    "ELEMENT_SET_NO": 999,
    "REV_AT_EPOCH": 20554,
    "BSTAR": 0.00039575,
    "MEAN_MOTION_DOT": 6.022e-05,
    "MEAN_MOTION_DDOT": 0.0,
    "TLE_LINE1": "1 51717U 22016D   25315.24433780  .00006022  00000+0  39575-3 0  9990",
    "TLE_LINE2": "2 51717  53.2171 140.9288 0001987  79.0017 281.1199 15.08876315205544",
    "COMMENT": "Grouped by shell and plane from TLE"
  },
  {
    "OBJECT_NAME": "STARLINK-3546",
    "OBJECT_ID": "22016E",
    "EPOCH": "2025-11-11T05:17:38.398848",
    "MEAN_MOTION": 15.09191431,
    "ECCENTRICITY": 0.0001454,
    "INCLINATION": 53.2191,
    "RA_OF_ASC_NODE": 140.9421,
    "ARG_OF_PERICENTER": 82.94,
    "MEAN_ANOMALY": 277.1757,
    "EPHEMERIS_TYPE": 0,
    "CLASSIFICATION_TYPE": "U",
    "NORAD_CAT_ID": 51718,
    "ELEMENT_SET_NO": 999,
    "REV_AT_EPOCH": 20666,
    "BSTAR": 0.00053131,
    "MEAN_MOTION_DOT": 8.259e-05,
    "MEAN_MOTION_DDOT": 0.0,
    "TLE_LINE1": "1 51718U 22016E   25315.22058332  .00008259  00000+0  53131-3 0  9993",
    "TLE_LINE2": "2 51718  53.2191 140.9421 0001454  82.9400 277.1757 15.09191431206663",
    "COMMENT": "Grouped by shell and plane from TLE"
  }
]